#dP2025  1 15 12  0  0.00000000      96 __u+U IGS20 EXT  IAC
## 2349 302400.00000000   900.00000000 60690 0.5000000000000
+   52   G01G02G03G04G05G06G07G08G09G10G11G12G13G14G15G16G17
+        G18G19G20G21G22G23G24G25G26G27G28G29G30G31G32R01R02
+        R03R04R05R07R08R09R11R12R14R15R16R17R18R19R20R21R22
+        R24  0  0  0  0  0  0  0  0  0  0  0  0  0  0  0  0
+          0  0  0  0  0  0  0  0  0  0  0  0  0  0  0  0  0
++         9  8  7  8  8  8  8  7  7  7  8  8  7  7  7  7 10
++         8  9  8  7  7  8  7  8  8  7  8  9  7  7  8 10  9
++         9  8  9  9 10  8  9  8  8  8  9 10  8 10 10  9  9
++        10  0  0  0  0  0  0  0  0  0  0  0  0  0  0  0  0
++         0  0  0  0  0  0  0  0  0  0  0  0  0  0  0  0  0
%c M  cc GPS ccc cccc cccc cccc cccc ccccc ccccc ccccc ccccc
%c cc cc ccc ccc cccc cccc cccc cccc ccccc ccccc ccccc ccccc
%f  0.0000000  0.000000000  0.00000000000  0.000000000000000
%f  0.0000000  0.000000000  0.00000000000  0.000000000000000
%i    0    0    0    0      0      0      0      0         0
%i    0    0    0    0      0      0      0      0         0
/* IAC                                ULTRA-RAPID PREDICTION
/* S/V CLOCKS ARE ALIGNED TO GNSS TIME                      
/* G:C1WC2W R:C1PC2P E:C1XC5X C:C2IC6I J:C1CC2S             
/* PCV:IGS20_2317 OL/AL:FES2004  NONE     YN ORB:CoN CLK:CoN
*  2025 01 15 15 30  0.00000000
PG01 -12254.446535 -14628.067556 -18471.665518     50.655466
PG02 -11251.237315 -13233.267506 -19743.224644   -267.186852
PG03 -12363.422252 -23564.368731    638.988904    646.543648
PG04  -5669.001087 -16239.678615  20215.327274    512.377814
PG05   3194.683897  22941.486295  12765.079672   -199.104810
PG06 -22927.293226   6366.882469  12006.598529   -120.387990
PG07 -24263.562492  -7607.355158   8965.809836    -13.499723
PG08   2570.947175 -22787.058050 -13131.546398    461.426343
PG09 -13114.196174  -7628.497361  21710.915055    529.775075
PG10  14905.324022  -2247.288894 -21671.367937   -277.990914
PG11 -12668.336885  12498.959466  19737.427492   -751.611586
PG12   9142.886203  24903.805704  -2017.482149   -564.618435
PG13 -12343.636528  22148.431522  -7709.524263    693.561088
PG14 -17092.761054  -1544.315826 -20280.949621    580.498547
PG15    880.905334  22974.483181 -13698.997424    251.965863
PG16   3845.108538 -20317.485588  16049.096102    -77.185605
PG17 -19490.986989   8002.311599 -15889.169584    472.961482
PG18  25295.790554   5898.362716   6131.653228   -657.762358
PG19 -19747.819780  15383.858423  -8317.001221    586.525693
PG20  -5945.126268  15976.980248  20486.790860    367.051299
PG21  -4349.577008 -14755.408699 -21366.055803    101.089128
PG22 -13347.563779   7124.299304 -21458.432955    -92.431834
PG23  18181.517757  12262.191917 -15101.929168    404.409102
PG24   8821.599317  14877.184225 -20714.553574   -463.641620
PG25  17132.680502  18207.937802   8985.736956    496.698477
PG26  10864.223090 -11967.034387  20845.141438    -49.403330
PG27  11819.957085 -23303.529072  -3472.400861    -33.013716
PG28  23814.961914  -6428.287203   9842.726963   -536.074684
PG29  12446.553563   8452.726720  21844.661633   -546.869666
PG30 -26524.001383    880.432958  -2853.027251   -238.530767
PG31  17728.733555 -10571.606505  16662.575158   -217.814739
PG32  18894.407775 -12806.521423 -13177.606041   -541.081683
PR01   7859.448418  11914.446268 -21134.555320    111.343639
PR02  11781.723765  -6210.499871 -21691.458967    -38.444220
PR03   9436.655315 -21604.927627  -9608.858729    114.973376
PR04   2355.662550 -24357.796444   7198.246278    272.639466
PR05  -6134.803458 -14291.423420  20223.270582    143.788259
PR07  -9423.571450  21797.988011   9428.708661     98.935122
PR08  -2022.487641  24363.089086  -7289.556215     -6.368177
PR09 -18553.041008  -4856.652537 -16849.928641    232.257549
PR11   7080.226772  17406.612521 -17235.293928     -0.963499
PR12  19120.569099  16877.142143    803.090981     49.640608
PR14   6902.965615  -8798.076057  22930.219852     27.594975
PR15  -8437.713605 -18067.144237  15922.301126     72.169208
PR16 -19115.578071 -16906.384200   -620.136902     32.487825
PR17  18304.947195 -11947.015572 -13166.591224    157.741179
PR18   2961.448549 -11522.418647 -22535.568181    182.050464
PR19 -12089.222235  -6787.553779 -21405.588031   -305.612366
PR20 -24710.115311   4017.508633  -4995.713360   -124.573377
PR21 -19265.076645  11476.691332  12140.165434   -168.413112
PR22  -1766.077279  11630.050903  22665.173405    -56.095960
PR24  24535.044763  -5361.426965   4527.991772    -88.305502
*  2025 01 15 15 45  0.00000000
PG01 -10060.933763 -14539.964904 -19816.089813     50.682888
PG02  -8862.781797 -13472.154880 -20715.388608   -267.178601
PG03 -12179.348836 -23580.406276  -2260.645563    646.550255
PG04  -4355.970366 -18057.285975  18944.967149    512.383074
PG05   2195.088295  21661.215972  14994.073322   -199.105884
PG06 -24132.962691   6183.408301   9465.173786   -120.412058
PG07 -23173.723606  -7799.441485  11448.054305    -13.499442
PG08   3460.144202 -23856.658223 -10751.098670    461.433350
PG09 -11871.299899  -9792.009093  21552.304297    529.788500
PG10  16070.503929    -59.690137 -20980.310590   -278.005278
PG11 -14827.922426  12244.307291  18335.185618   -751.610649
PG12   8766.404028  24682.986196  -4834.796584   -564.620484
PG13 -12960.092979  22549.017392  -4937.478061    693.562170
PG14 -18054.697576  -3599.118268 -19180.607537    580.504976
PG15    132.626366  24153.323379 -11408.240743    251.969853
PG16   4843.328545 -18554.289644  17820.027547    -77.177145
PG17 -18496.654110   6279.271775 -17685.280142    472.945732
PG18  24444.139163   6055.977058   8829.012520   -657.761107
PG19 -19287.764679  14360.478466 -10909.489194    586.529762
PG20  -7501.023880  14188.132508  21269.915213    367.051021
PG21  -1824.620001 -14925.452482 -21509.134536    101.089869
PG22 -14361.740454   4798.773517 -21422.606232    -92.433633
PG23  18874.158630  13706.197466 -12871.369694    404.415828
PG24   6520.757204  15127.940668 -21353.988986   -463.637976
PG25  17370.357682  19130.152503   6355.004937    496.697943
PG26  12281.730952  -9960.903982  21144.109523    -49.417202
PG27  12174.750191 -23330.743507   -606.780907    -33.013214
PG28  24795.663485  -6208.496913   7215.400301   -536.083304
PG29  10991.458419  10487.244376  21732.433166   -546.866520
PG30 -26702.787589    572.043613    -70.906242   -238.523174
PG31  19546.605464 -10326.663406  14730.171150   -217.813970
PG32  18223.107154 -11259.351740 -15340.231441   -541.075382
PR01   7533.289209  14411.930609 -19644.932147    111.344818
PR02  11194.253516  -3526.553107 -22590.335549    -38.443946
PR03   9040.260648 -20284.728209 -12441.310330    114.973943
PR04   2316.938974 -25071.149115   4064.480370    272.640763
PR05  -5755.022325 -16649.387288  18450.276727    143.788736
PR07  -9022.708952  20519.417161  12269.796754     98.935783
PR08  -1994.495913  25096.767375  -4170.909172     -6.368302
PR09 -20107.049749  -6012.020344 -14545.570760    232.259544
PR11   5416.231249  15890.575263 -19192.610948     -0.966240
PR12  19129.620250  16711.590712  -2398.344167     49.640992
PR14   9069.025356  -6993.907440  22795.094426     27.594999
PR15  -6899.479140 -16642.908054  18071.304149     72.168879
PR16 -19122.680193 -16710.521536   2588.807593     32.488074
PR17  19629.086306 -12572.896488 -10389.003274    157.744181
PR18   5535.539962 -12430.687448 -21542.450235    182.052182
PR19  -9466.587192  -7483.690962 -22467.415693   -305.613562
PR20 -23872.694005   3993.407761  -8105.582515   -124.573814
PR21 -20465.001583  12059.469532   9269.716398   -168.416021
PR22  -4374.643354  12466.776422  21852.490883    -56.097694
PR24  23781.886005  -5253.996567   7625.925894    -88.306952
EOF
